[
  {
    "OBJECT_NAME": "OSCAR 7 (AO-7)",
    "OBJECT_ID": "1974-089B",
    "EPOCH": "2025-04-16T22:19:45.687360",
    "MEAN_MOTION": 12.53688301,
    "ECCENTRICITY": 0.001196,
    "INCLINATION": 101.9952,
    "RA_OF_ASC_NODE": 110.6206,
    "ARG_OF_PERICENTER": 223.2091,
    "MEAN_ANOMALY": 147.8541,
    "EPHEMERIS_TYPE": 0,
    "CLASSIFICATION_TYPE": "U",
    "NORAD_CAT_ID": 7530,
    "ELEMENT_SET_NO": 999,
    "REV_AT_EPOCH": 30710,
    "BSTAR": 2.1029e-6,
    "MEAN_MOTION_DOT": -4.6e-7,
    "MEAN_MOTION_DDOT": 0
  },
  {
    "OBJECT_NAME": "PHASE 3B (AO-10)",
    "OBJECT_ID": "1983-058B",
    "EPOCH": "2025-04-11T02:52:21.139968",
    "MEAN_MOTION": 2.05871646,
    "ECCENTRICITY": 0.6051921,
    "INCLINATION": 26.9257,
    "RA_OF_ASC_NODE": 292.0362,
    "ARG_OF_PERICENTER": 356.2442,
    "MEAN_ANOMALY": 0.7331,
    "EPHEMERIS_TYPE": 0,
    "CLASSIFICATION_TYPE": "U",
    "NORAD_CAT_ID": 14129,
    "ELEMENT_SET_NO": 999,
    "REV_AT_EPOCH": 28659,
    "BSTAR": 0,
    "MEAN_MOTION_DOT": -1.41e-6,
    "MEAN_MOTION_DDOT": 0
  },
  {
    "OBJECT_NAME": "UOSAT 2 (UO-11)",
    "OBJECT_ID": "1984-021B",
    "EPOCH": "2025-04-16T22:02:41.641728",
    "MEAN_MOTION": 14.89178005,
    "ECCENTRICITY": 0.0008672,
    "INCLINATION": 97.7503,
    "RA_OF_ASC_NODE": 74.3725,
    "ARG_OF_PERICENTER": 143.8269,
    "MEAN_ANOMALY": 216.3536,
    "EPHEMERIS_TYPE": 0,
    "CLASSIFICATION_TYPE": "U",
    "NORAD_CAT_ID": 14781,
    "ELEMENT_SET_NO": 999,
    "REV_AT_EPOCH": 19365,
    "BSTAR": 0.00061579,
    "MEAN_MOTION_DOT": 5.77e-5,
    "MEAN_MOTION_DDOT": 0
  },
  {
    "OBJECT_NAME": "LUSAT (LO-19)",
    "OBJECT_ID": "1990-005G",
    "EPOCH": "2025-04-16T22:29:35.189376",
    "MEAN_MOTION": 14.33928099,
    "ECCENTRICITY": 0.0011962,
    "INCLINATION": 98.9002,
    "RA_OF_ASC_NODE": 111.598,
    "ARG_OF_PERICENTER": 21.321,
    "MEAN_ANOMALY": 338.847,
    "EPHEMERIS_TYPE": 0,
    "CLASSIFICATION_TYPE": "U",
    "NORAD_CAT_ID": 20442,
    "ELEMENT_SET_NO": 999,
    "REV_AT_EPOCH": 84130,
    "BSTAR": 0.00025536,
    "MEAN_MOTION_DOT": 6.66e-6,
    "MEAN_MOTION_DDOT": 0
  },
  {
    "OBJECT_NAME": "EYESAT A (AO-27)",
    "OBJECT_ID": "1993-061C",
    "EPOCH": "2025-04-16T15:36:34.204896",
    "MEAN_MOTION": 14.30775769,
    "ECCENTRICITY": 0.0007251,
    "INCLINATION": 98.7414,
    "RA_OF_ASC_NODE": 167.9249,
    "ARG_OF_PERICENTER": 270.6664,
    "MEAN_ANOMALY": 89.3687,
    "EPHEMERIS_TYPE": 0,
    "CLASSIFICATION_TYPE": "U",
    "NORAD_CAT_ID": 22825,
    "ELEMENT_SET_NO": 999,
    "REV_AT_EPOCH": 64600,
    "BSTAR": 0.00012287,
    "MEAN_MOTION_DOT": 2.77e-6,
    "MEAN_MOTION_DDOT": 0
  },
  {
    "OBJECT_NAME": "ITAMSAT (IO-26)",
    "OBJECT_ID": "1993-061D",
    "EPOCH": "2025-04-16T16:25:59.940192",
    "MEAN_MOTION": 14.3118632,
    "ECCENTRICITY": 0.0007824,
    "INCLINATION": 98.7361,
    "RA_OF_ASC_NODE": 167.8386,
    "ARG_OF_PERICENTER": 252.4979,
    "MEAN_ANOMALY": 107.5349,
    "EPHEMERIS_TYPE": 0,
    "CLASSIFICATION_TYPE": "U",
    "NORAD_CAT_ID": 22826,
    "ELEMENT_SET_NO": 999,
    "REV_AT_EPOCH": 64630,
    "BSTAR": 0.00013253,
    "MEAN_MOTION_DOT": 3.05e-6,
    "MEAN_MOTION_DDOT": 0
  },
  {
    "OBJECT_NAME": "RADIO ROSTO (RS-15)",
    "OBJECT_ID": "1994-085A",
    "EPOCH": "2025-04-16T21:00:57.730752",
    "MEAN_MOTION": 11.27581511,
    "ECCENTRICITY": 0.0145796,
    "INCLINATION": 64.815,
    "RA_OF_ASC_NODE": 272.6533,
    "ARG_OF_PERICENTER": 84.8593,
    "MEAN_ANOMALY": 276.8952,
    "EPHEMERIS_TYPE": 0,
    "CLASSIFICATION_TYPE": "U",
    "NORAD_CAT_ID": 23439,
    "ELEMENT_SET_NO": 999,
    "REV_AT_EPOCH": 24783,
    "BSTAR": 8.2499e-5,
    "MEAN_MOTION_DOT": -4.0e-7,
    "MEAN_MOTION_DDOT": 0
  },
  {
    "OBJECT_NAME": "JAS-2 (FO-29)",
    "OBJECT_ID": "1996-046B",
    "EPOCH": "2025-04-16T16:56:50.781120",
    "MEAN_MOTION": 13.53244094,
    "ECCENTRICITY": 0.0350778,
    "INCLINATION": 98.5813,
    "RA_OF_ASC_NODE": 7.6783,
    "ARG_OF_PERICENTER": 122.0853,
    "MEAN_ANOMALY": 241.4852,
    "EPHEMERIS_TYPE": 0,
    "CLASSIFICATION_TYPE": "U",
    "NORAD_CAT_ID": 24278,
    "ELEMENT_SET_NO": 999,
    "REV_AT_EPOCH": 41548,
    "BSTAR": 6.2807e-5,
    "MEAN_MOTION_DOT": 2.9e-7,
    "MEAN_MOTION_DDOT": 0
  },
  {
    "OBJECT_NAME": "TECHSAT 1B (GO-32)",
    "OBJECT_ID": "1998-043D",
    "EPOCH": "2025-04-16T21:08:49.818624",
    "MEAN_MOTION": 14.2429734,
    "ECCENTRICITY": 0.0001784,
    "INCLINATION": 98.9672,
    "RA_OF_ASC_NODE": 84.891,
    "ARG_OF_PERICENTER": 41.2609,
    "MEAN_ANOMALY": 318.8704,
    "EPHEMERIS_TYPE": 0,
    "CLASSIFICATION_TYPE": "U",
    "NORAD_CAT_ID": 25397,
    "ELEMENT_SET_NO": 999,
    "REV_AT_EPOCH": 39064,
    "BSTAR": 0.00018989,
    "MEAN_MOTION_DOT": 3.92e-6,
    "MEAN_MOTION_DDOT": 0
  },
  {
    "OBJECT_NAME": "ISS (ZARYA)",
    "OBJECT_ID": "1998-067A",
    "EPOCH": "2025-04-17T03:08:55.999680",
    "MEAN_MOTION": 15.49616282,
    "ECCENTRICITY": 0.0005308,
    "INCLINATION": 51.6383,
    "RA_OF_ASC_NODE": 249.4392,
    "ARG_OF_PERICENTER": 51.9135,
    "MEAN_ANOMALY": 312.7057,
    "EPHEMERIS_TYPE": 0,
    "CLASSIFICATION_TYPE": "U",
    "NORAD_CAT_ID": 25544,
    "ELEMENT_SET_NO": 999,
    "REV_AT_EPOCH": 50569,
    "BSTAR": 0.00026577,
    "MEAN_MOTION_DOT": 0.00014542,
    "MEAN_MOTION_DDOT": 0
  },
  {
    "OBJECT_NAME": "PCSAT (NO-44)",
    "OBJECT_ID": "2001-043C",
    "EPOCH": "2025-04-16T20:32:36.405024",
    "MEAN_MOTION": 14.31700742,
    "ECCENTRICITY": 0.0005571,
    "INCLINATION": 67.0499,
    "RA_OF_ASC_NODE": 266.7396,
    "ARG_OF_PERICENTER": 270.7385,
    "MEAN_ANOMALY": 89.3078,
    "EPHEMERIS_TYPE": 0,
    "CLASSIFICATION_TYPE": "U",
    "NORAD_CAT_ID": 26931,
    "ELEMENT_SET_NO": 999,
    "REV_AT_EPOCH": 22941,
    "BSTAR": 0.0003596,
    "MEAN_MOTION_DOT": 8.78e-6,
    "MEAN_MOTION_DDOT": 0
  },
  {
    "OBJECT_NAME": "SAUDISAT 1C (SO-50)",
    "OBJECT_ID": "2002-058C",
    "EPOCH": "2025-04-16T19:44:00.228768",
    "MEAN_MOTION": 14.81441666,
    "ECCENTRICITY": 0.0049889,
    "INCLINATION": 64.556,
    "RA_OF_ASC_NODE": 6.4518,
    "ARG_OF_PERICENTER": 346.8349,
    "MEAN_ANOMALY": 13.145,
    "EPHEMERIS_TYPE": 0,
    "CLASSIFICATION_TYPE": "U",
    "NORAD_CAT_ID": 27607,
    "ELEMENT_SET_NO": 999,
    "REV_AT_EPOCH": 20126,
    "BSTAR": 0.00071527,
    "MEAN_MOTION_DOT": 5.596e-5,
    "MEAN_MOTION_DDOT": 0
  },
  {
    "OBJECT_NAME": "CUTE-1 (CO-55)",
    "OBJECT_ID": "2003-031E",
    "EPOCH": "2025-04-16T22:14:03.192576",
    "MEAN_MOTION": 14.23944526,
    "ECCENTRICITY": 0.0009341,
    "INCLINATION": 98.6784,
    "RA_OF_ASC_NODE": 115.889,
    "ARG_OF_PERICENTER": 351.0398,
    "MEAN_ANOMALY": 9.0613,
    "EPHEMERIS_TYPE": 0,
    "CLASSIFICATION_TYPE": "U",
    "NORAD_CAT_ID": 27844,
    "ELEMENT_SET_NO": 999,
    "REV_AT_EPOCH": 13100,
    "BSTAR": 0.00057669,
    "MEAN_MOTION_DOT": 1.279e-5,
    "MEAN_MOTION_DDOT": 0
  },
  {
    "OBJECT_NAME": "CUBESAT XI-IV (CO-57)",
    "OBJECT_ID": "2003-031J",
    "EPOCH": "2025-04-16T18:42:37.758816",
    "MEAN_MOTION": 14.2328292,
    "ECCENTRICITY": 0.0009629,
    "INCLINATION": 98.6812,
    "RA_OF_ASC_NODE": 115.7901,
    "ARG_OF_PERICENTER": 8.7019,
    "MEAN_ANOMALY": 351.4325,
    "EPHEMERIS_TYPE": 0,
    "CLASSIFICATION_TYPE": "U",
    "NORAD_CAT_ID": 27848,
    "ELEMENT_SET_NO": 999,
    "REV_AT_EPOCH": 13071,
    "BSTAR": 0.00029276,
    "MEAN_MOTION_DOT": 6.19e-6,
    "MEAN_MOTION_DDOT": 0
  }
]
