OSCAR 7 (AO-7)          
1 07530U 74089B   25106.93038990 -.00000046  00000+0  21029-5 0  9997
2 07530 101.9952 110.6206 0011960 223.2091 147.8541 12.53688301307104
PHASE 3B (AO-10)        
1 14129U 83058B   25101.11968912 -.00000141  00000+0  00000+0 0  9992
2 14129  26.9257 292.0362 6051921 356.2442   0.7331  2.05871646286597
UOSAT 2 (UO-11)         
1 14781U 84021B   25106.91853752  .00005770  00000+0  61579-3 0  9999
2 14781  97.7503  74.3725 0008672 143.8269 216.3536 14.89178005193651
LUSAT (LO-19)           
1 20442U 90005G   25106.93721284  .00000666  00000+0  25536-3 0  9997
2 20442  98.9002 111.5980 0011962  21.3210 338.8470 14.33928099841302
EYESAT A (AO-27)        
1 22825U 93061C   25106.65039589  .00000277  00000+0  12287-3 0  9995
2 22825  98.7414 167.9249 0007251 270.6664  89.3687 14.30775769646004
ITAMSAT (IO-26)         
1 22826U 93061D   25106.68472153  .00000305  00000+0  13253-3 0  9993
2 22826  98.7361 167.8386 0007824 252.4979 107.5349 14.31186320646301
RADIO ROSTO (RS-15)     
1 23439U 94085A   25106.87566818 -.00000040  00000+0  82499-4 0  9990
2 23439  64.8150 272.6533 0145796  84.8593 276.8952 11.27581511247839
JAS-2 (FO-29)           
1 24278U 96046B   25106.70614330  .00000029  00000+0  62807-4 0  9993
2 24278  98.5813   7.6783 0350778 122.0853 241.4852 13.53244094415484
TECHSAT 1B (GO-32)      
1 25397U 98043D   25106.88113216  .00000392  00000+0  18989-3 0  9995
2 25397  98.9672  84.8910 0001784  41.2609 318.8704 14.24297340390640
ISS (ZARYA)             
1 25544U 98067A   25107.13120370  .00014542  00000+0  26577-3 0  9997
2 25544  51.6383 249.4392 0005308  51.9135 312.7057 15.49616282505695
PCSAT (NO-44)           
1 26931U 01043C   25106.85597691  .00000878  00000+0  35960-3 0  9991
2 26931  67.0499 266.7396 0005571 270.7385  89.3078 14.31700742229419
SAUDISAT 1C (SO-50)     
1 27607U 02058C   25106.82222487  .00005596  00000+0  71527-3 0  9995
2 27607  64.5560   6.4518 0049889 346.8349  13.1450 14.81441666201265
CUTE-1 (CO-55)          
1 27844U 03031E   25106.92642584  .00001279  00000+0  57669-3 0  9990
2 27844  98.6784 115.8890 0009341 351.0398   9.0613 14.23944526131001
CUBESAT XI-IV (CO-57)   
1 27848U 03031J   25106.77960369  .00000619  00000+0  29276-3 0  9991
2 27848  98.6812 115.7901 0009629   8.7019 351.4325 14.23282920130718
